{
  "type": "FeatureCollection",
  "features": [
    {
      "type": "Feature",
      "properties": {
        "norad_id": 37836,
        "name": "EUTELSAT 16A",
        "group": "eutelsat",
        "lat": 0.07522795483991235,
        "lon": 97.81409730613564,
        "alt_km": 35811.14801644696,
        "timestamp": "2025-12-18T23:35:48.718713+00:00",
        "meta_object_name": "EUTELSAT 16A",
        "meta_object_id": "2011-057A",
        "meta_epoch": "2025-12-18T08:14:09.493152",
        "meta_mean_motion": 1.00274818,
        "meta_eccentricity": 0.00061794,
        "meta_inclination": 0.0622,
        "meta_ra_of_asc_node": 332.9204,
        "meta_arg_of_pericenter": 297.9411,
        "meta_mean_anomaly": 315.9211,
        "meta_ephemeris_type": 0,
        "meta_classification_type": "U",
        "meta_norad_cat_id": 37836,
        "meta_element_set_no": 999,
        "meta_rev_at_epoch": 551,
        "meta_bstar": 0,
        "meta_mean_motion_dot": 1.3e-06,
        "meta_mean_motion_ddot": 0,
        "tle_line1": "1 37836U 11057A   25352.34316543  .00000130  00000+0  00000+0 0  9999",
        "tle_line2": "2 37836   0.0622 332.9204 0006179 297.9411 315.9211  1.00274818  5512"
      },
      "geometry": {
        "type": "Point",
        "coordinates": [
          97.81409730613564,
          0.07522795483991235
        ]
      }
    },
    {
      "type": "Feature",
      "properties": {
        "norad_id": 38992,
        "name": "EUTELSAT 21B",
        "group": "eutelsat",
        "lat": 0.07982007062465062,
        "lon": 103.4162956621139,
        "alt_km": 35799.89569246463,
        "timestamp": "2025-12-18T23:35:48.718725+00:00",
        "meta_object_name": "EUTELSAT 21B",
        "meta_object_id": "2012-062B",
        "meta_epoch": "2025-12-18T11:40:58.442592",
        "meta_mean_motion": 1.00274867,
        "meta_eccentricity": 0.00035023,
        "meta_inclination": 0.071,
        "meta_ra_of_asc_node": 335.7562,
        "meta_arg_of_pericenter": 301.4636,
        "meta_mean_anomaly": 7.0079,
        "meta_ephemeris_type": 0,
        "meta_classification_type": "U",
        "meta_norad_cat_id": 38992,
        "meta_element_set_no": 999,
        "meta_rev_at_epoch": 4801,
        "meta_bstar": 0,
        "meta_mean_motion_dot": 1.56e-06,
        "meta_mean_motion_ddot": 0,
        "tle_line1": "1 38992U 12062B   25352.48678753  .00000156  00000+0  00000+0 0  9997",
        "tle_line2": "2 38992   0.0710 335.7562 0003502 301.4636   7.0079  1.00274867 48016"
      },
      "geometry": {
        "type": "Point",
        "coordinates": [
          103.4162956621139,
          0.07982007062465062
        ]
      }
    },
    {
      "type": "Feature",
      "properties": {
        "norad_id": 39020,
        "name": "EUTELSAT 70B",
        "group": "eutelsat",
        "lat": 0.037166307445444205,
        "lon": 152.22334460912435,
        "alt_km": 35789.39094693122,
        "timestamp": "2025-12-18T23:35:48.718737+00:00",
        "meta_object_name": "EUTELSAT 70B",
        "meta_object_id": "2012-069A",
        "meta_epoch": "2025-12-18T13:37:47.253792",
        "meta_mean_motion": 1.00271279,
        "meta_eccentricity": 0.00042995,
        "meta_inclination": 0.0609,
        "meta_ra_of_asc_node": 359.9838,
        "meta_arg_of_pericenter": 252.1802,
        "meta_mean_anomaly": 110.2048,
        "meta_ephemeris_type": 0,
        "meta_classification_type": "U",
        "meta_norad_cat_id": 39020,
        "meta_element_set_no": 999,
        "meta_rev_at_epoch": 4769,
        "meta_bstar": 0,
        "meta_mean_motion_dot": -1.8e-07,
        "meta_mean_motion_ddot": 0,
        "tle_line1": "1 39020U 12069A   25352.56790803 -.00000018  00000+0  00000+0 0  9995",
        "tle_line2": "2 39020   0.0609 359.9838 0004299 252.1802 110.2048  1.00271279 47691"
      },
      "geometry": {
        "type": "Point",
        "coordinates": [
          152.22334460912435,
          0.037166307445444205
        ]
      }
    },
    {
      "type": "Feature",
      "properties": {
        "norad_id": 39122,
        "name": "EUTELSAT 117 WEST A",
        "group": "eutelsat",
        "lat": -0.03753789246925438,
        "lon": -34.98824638260225,
        "alt_km": 35778.8255690252,
        "timestamp": "2025-12-18T23:35:48.718749+00:00",
        "meta_object_name": "EUTELSAT 117 WEST A",
        "meta_object_id": "2013-012A",
        "meta_epoch": "2025-12-18T14:08:49.351776",
        "meta_mean_motion": 1.00272916,
        "meta_eccentricity": 0.00027086,
        "meta_inclination": 0.0281,
        "meta_ra_of_asc_node": 46.0538,
        "meta_arg_of_pericenter": 226.1705,
        "meta_mean_anomaly": 270.6367,
        "meta_ephemeris_type": 0,
        "meta_classification_type": "U",
        "meta_norad_cat_id": 39122,
        "meta_element_set_no": 999,
        "meta_rev_at_epoch": 4662,
        "meta_bstar": 0,
        "meta_mean_motion_dot": 1.2e-07,
        "meta_mean_motion_ddot": 0,
        "tle_line1": "1 39122U 13012A   25352.58946009  .00000012  00000+0  00000+0 0  9993",
        "tle_line2": "2 39122   0.0281  46.0538 0002708 226.1705 270.6367  1.00272916 46623"
      },
      "geometry": {
        "type": "Point",
        "coordinates": [
          -34.98824638260225,
          -0.03753789246925438
        ]
      }
    },
    {
      "type": "Feature",
      "properties": {
        "norad_id": 39163,
        "name": "EUTELSAT 7B",
        "group": "eutelsat",
        "lat": 0.09205560125544915,
        "lon": 88.82195496204386,
        "alt_km": 35797.47980860948,
        "timestamp": "2025-12-18T23:35:48.718762+00:00",
        "meta_object_name": "EUTELSAT 7B",
        "meta_object_id": "2013-022A",
        "meta_epoch": "2025-12-18T15:02:24.148896",
        "meta_mean_motion": 1.00270359,
        "meta_eccentricity": 0.00042783,
        "meta_inclination": 0.0652,
        "meta_ra_of_asc_node": 355.2817,
        "meta_arg_of_pericenter": 325.969,
        "meta_mean_anomaly": 358.8421,
        "meta_ephemeris_type": 0,
        "meta_classification_type": "U",
        "meta_norad_cat_id": 39163,
        "meta_element_set_no": 999,
        "meta_rev_at_epoch": 4613,
        "meta_bstar": 0,
        "meta_mean_motion_dot": 7.3e-07,
        "meta_mean_motion_ddot": 0,
        "tle_line1": "1 39163U 13022A   25352.62666839  .00000073  00000+0  00000+0 0  9991",
        "tle_line2": "2 39163   0.0652 355.2817 0004278 325.9690 358.8421  1.00270359 46135"
      },
      "geometry": {
        "type": "Point",
        "coordinates": [
          88.82195496204386,
          0.09205560125544915
        ]
      }
    },
    {
      "type": "Feature",
      "properties": {
        "norad_id": 39612,
        "name": "EXPRESS-AT1",
        "group": "eutelsat",
        "lat": 0.0015887054776587187,
        "lon": 137.77758452736953,
        "alt_km": 35783.80307171416,
        "timestamp": "2025-12-18T23:35:48.718774+00:00",
        "meta_object_name": "EXPRESS-AT1",
        "meta_object_id": "2014-010A",
        "meta_epoch": "2025-12-18T15:16:22.810368",
        "meta_mean_motion": 1.00271077,
        "meta_eccentricity": 5.902e-05,
        "meta_inclination": 0.0176,
        "meta_ra_of_asc_node": 298.3919,
        "meta_arg_of_pericenter": 189.3495,
        "meta_mean_anomaly": 244.8473,
        "meta_ephemeris_type": 0,
        "meta_classification_type": "U",
        "meta_norad_cat_id": 39612,
        "meta_element_set_no": 999,
        "meta_rev_at_epoch": 4300,
        "meta_bstar": 0,
        "meta_mean_motion_dot": 1.04e-06,
        "meta_mean_motion_ddot": 0,
        "tle_line1": "1 39612U 14010A   25352.63637512  .00000104  00000+0  00000+0 0  9990",
        "tle_line2": "2 39612   0.0176 298.3919 0000590 189.3495 244.8473  1.00271077 43005"
      },
      "geometry": {
        "type": "Point",
        "coordinates": [
          137.77758452736953,
          0.0015887054776587187
        ]
      }
    },
    {
      "type": "Feature",
      "properties": {
        "norad_id": 39613,
        "name": "EXPRESS-AT2",
        "group": "eutelsat",
        "lat": -0.02875161965906466,
        "lon": -138.37388771655816,
        "alt_km": 35784.259785569666,
        "timestamp": "2025-12-18T23:35:48.718787+00:00",
        "meta_object_name": "EXPRESS-AT2",
        "meta_object_id": "2014-010B",
        "meta_epoch": "2025-12-18T15:40:20.515008",
        "meta_mean_motion": 1.00272078,
        "meta_eccentricity": 9.981e-05,
        "meta_inclination": 0.0134,
        "meta_ra_of_asc_node": 295.299,
        "meta_arg_of_pericenter": 351.5774,
        "meta_mean_anomaly": 175.5782,
        "meta_ephemeris_type": 0,
        "meta_classification_type": "U",
        "meta_norad_cat_id": 39613,
        "meta_element_set_no": 999,
        "meta_rev_at_epoch": 4269,
        "meta_bstar": 0,
        "meta_mean_motion_dot": -2.56e-06,
        "meta_mean_motion_ddot": 0,
        "tle_line1": "1 39613U 14010B   25352.65301522 -.00000256  00000+0  00000+0 0  9991",
        "tle_line2": "2 39613   0.0134 295.2990 0000998 351.5774 175.5782  1.00272078 42699"
      },
      "geometry": {
        "type": "Point",
        "coordinates": [
          -138.37388771655816,
          -0.02875161965906466
        ]
      }
    }
  ]
}